{
  "norad_id": 67422,
  "name": "STARLINK-36418",
  "history": [
    {
      "epoch": "2026-03-28T19:20:42.557568",
      "apogee_km": 483.7284541522831,
      "perigee_km": 482.2918671597854,
      "latitude_deg": -42.45540421213851,
      "longitude_deg": -80.41938047995791,
      "semi_major_axis_km": 6861.147160656034,
      "eccentricity": 0.00010469,
      "inclination_deg": 43.0011,
      "raan_deg": 129.7098,
      "arg_perigee_deg": 279.4726,
      "mean_anomaly_deg": 80.6007,
      "mean_motion_rev_day": 15.27593003
    }
  ]
}