{"fetched_at":"2026-03-29T16:36:15Z","count":15609,"tles":[{"name":"STARLINK-36418","line1":"1 67422U 26005U   26087.80604812  .00026071  00000+0  95322-3 0  9995","line2":"2 67422  43.0011 129.7098 0001046 279.4726  80.6007 15.27593003 11622","category":"Starlink"}]}